NORAD_CAT_ID,OBJECT_NAME,OBJECT_TYPE,EPOCH,MEAN_MOTION,ECCENTRICITY,INCLINATION,RA_OF_ASC_NODE,ARG_OF_PERICENTER,MEAN_ANOMALY,BSTAR,MEAN_MOTION_DOT,MEAN_MOTION_DDOT,TLE_LINE0,TLE_LINE1,TLE_LINE2,SEMIMAJOR_AXIS,PERIOD,APOGEE,PERIGEE,DECAYED
53625.0,STARLINK-4603,PAYLOAD,2023-04-08 01:32:20,15.08844619,0.000126,53.2155,342.1888,104.0836,256.0296,0.00024987,3.692e-05,0.0,0 STARLINK-4603,1 53625U 22104AP  23098.06412811  .00003692  00000-0  24987-3 0  9998,2 53625  53.2155 342.1888 0001260 104.0836 256.0296 15.08844619 34721,6917.866,95.437,540.603,538.86,0.0
53625.0,STARLINK-4603,PAYLOAD,2023-04-09 01:23:08,15.08840643,0.0001294,53.2156,337.7285,100.7779,259.3359,0.00026146,3.876e-05,0.0,0 STARLINK-4603,1 53625U 22104AP  23099.05773427  .00003876  00000-0  26146-3 0  9994,2 53625  53.2156 337.7285 0001294 100.7779 259.3359 15.08840643 34199,6917.878,95.438,540.639,538.848,0.0
53625.0,STARLINK-4603,PAYLOAD,2023-04-09 22:03:09,15.08846249,0.0001317,53.2157,333.8635,92.7804,267.3339,0.00032214,4.844e-05,0.0,0 STARLINK-4603,1 53625U 22104AP  23099.91885515  .00004844  00000-0  32214-3 0  9990,2 53625  53.2157 333.8635 0001317  92.7804 267.3339 15.08846249 35007,6917.861,95.437,540.637,538.815,0.0
53625.0,STARLINK-4603,PAYLOAD,2023-04-10 01:13:55,15.08849932,0.0001275,53.2158,333.2674,103.8315,256.2819,0.00045244,6.922e-05,0.0,0 STARLINK-4603,1 53625U 22104AP  23100.05133233  .00006922  00000-0  45244-3 0  9997,2 53625  53.2158 333.2674 0001275 103.8315 256.2819 15.08849932 35023,6917.85,95.437,540.597,538.833,0.0
53625.0,STARLINK-4603,PAYLOAD,2023-04-11 01:04:42,15.08846609,0.0001324,53.2159,328.8055,105.7729,254.341,0.00015841,2.235e-05,0.0,0 STARLINK-4603,1 53625U 22104AP  23101.04493190  .00002235  00000-0  15841-3 0  9991,2 53625  53.2159 328.8055 0001324 105.7729 254.3410 15.08846609 34496,6917.86,95.437,540.641,538.809,0.0
53625.0,STARLINK-4603,PAYLOAD,2023-04-11 12:12:24,15.08837004,0.0001297,53.2156,326.7234,107.2977,252.8158,3.6249e-05,2.89e-06,0.0,0 STARLINK-4603,1 53625U 22104AP  23101.50861577  .00000289  00000-0  36249-4 0  9993,2 53625  53.2156 326.7234 0001297 107.2977 252.8158 15.08837004 34569,6917.89,95.438,540.652,538.857,0.0
53625.0,STARLINK-4603,PAYLOAD,2023-04-11 15:23:10,15.08834302,0.0001288,53.2152,326.1311,101.1914,258.9223,-0.00012321,-2.248e-05,0.0,0 STARLINK-4603,1 53625U 22104AP  23101.64109784 -.00002248  00000-0 -12321-3 0  9996,2 53625  53.2152 326.1311 0001288 101.1914 258.9223 15.08834302 35265,6917.898,95.438,540.654,538.872,0.0
53625.0,STARLINK-4603,PAYLOAD,2023-04-11 21:44:43,15.08842756,0.000106,53.2164,324.943,91.1759,268.9355,-3.4298e-05,-8.34e-06,0.0,0 STARLINK-4603,1 53625U 22104AP  23101.90605610 -.00000834  00000-0 -34298-4 0  9991,2 53625  53.2164 324.9430 0001060  91.1759 268.9355 15.08842756 35303,6917.872,95.437,540.47,539.004,0.0
53625.0,STARLINK-4603,PAYLOAD,2023-04-12 02:30:52,15.08848154,0.0001172,53.2159,324.0509,94.0843,266.0283,1.7544e-05,-9e-08,0.0,0 STARLINK-4603,1 53625U 22104AP  23102.10477013 -.00000009  00000-0  17544-4 0  9996,2 53625  53.2159 324.0509 0001172  94.0843 266.0283 15.08848154 34659,6917.855,95.437,540.531,538.91,0.0
53625.0,STARLINK-4603,PAYLOAD,2023-04-12 13:38:35,15.08833666,0.0001315,53.216,321.9691,106.399,253.7147,-2.564e-05,-6.96e-06,0.0,0 STARLINK-4603,1 53625U 22104AP  23102.56846162 -.00000696  00000-0 -25640-4 0  9990,2 53625  53.2160 321.9691 0001315 106.3990 253.7147 15.08833666 35406,6917.9,95.438,540.674,538.855,0.0
53625.0,STARLINK-4603,PAYLOAD,2023-04-13 02:21:39,15.08849669,0.000117,53.2153,319.5905,98.2692,261.8433,0.00036798,5.575e-05,0.0,0 STARLINK-4603,1 53625U 22104AP  23103.09837244  .00005575  00000-0  36798-3 0  9994,2 53625  53.2153 319.5905 0001170  98.2692 261.8433 15.08849669 35482,6917.851,95.437,540.525,538.906,0.0
53625.0,STARLINK-4603,PAYLOAD,2023-04-13 16:40:08,15.08837541,0.0001166,53.2153,316.9139,100.3627,259.7496,0.00014301,1.989e-05,0.0,0 STARLINK-4603,1 53625U 22104AP  23103.69453971  .00001989  00000-0  14301-3 0  9992,2 53625  53.2153 316.9139 0001166 100.3627 259.7496 15.08837541 34895,6917.888,95.438,540.56,538.946,0.0
53625.0,STARLINK-4603,PAYLOAD,2023-04-14 13:20:08,15.08842894,0.0001258,53.2148,313.0479,98.9628,261.1506,0.00033897,5.111e-05,0.0,0 STARLINK-4603,1 53625U 22104AP  23104.55565782  .00005111  00000-0  33897-3 0  9994,2 53625  53.2148 313.0479 0001258  98.9628 261.1506 15.08842894 35706,6917.872,95.437,540.607,538.866,0.0
53625.0,STARLINK-4603,PAYLOAD,2023-04-14 14:55:31,15.08848701,0.0001207,53.2147,312.7509,92.0376,268.0755,0.0008078,0.00012595,0.0,0 STARLINK-4603,1 53625U 22104AP  23104.62189777  .00012595  00000-0  80780-3 0  9995,2 53625  53.2147 312.7509 0001207  92.0376 268.0755 15.08848701 35035,6917.854,95.437,540.554,538.884,0.0
53625.0,STARLINK-4603,PAYLOAD,2023-04-15 13:10:55,15.0884358,0.0001158,53.2143,308.5876,81.395,278.7173,0.00068621,0.00010651,0.0,0 STARLINK-4603,1 53625U 22104AP  23105.54925768  .00010651  00000-0  68621-3 0  9996,2 53625  53.2143 308.5876 0001158  81.3950 278.7173 15.08843580 35172,6917.869,95.437,540.536,538.933,0.0
53625.0,STARLINK-4603,PAYLOAD,2023-04-15 21:07:51,15.08858093,0.0001177,53.2143,307.1009,68.8669,291.2449,0.0021127,0.00033512,0.0,0 STARLINK-4603,1 53625U 22104AP  23105.88045759  .00033512  00000-0  21127-2 0  9996,2 53625  53.2143 307.1009 0001177  68.8669 291.2449 15.08858093 35905,6917.825,95.436,540.504,538.876,0.0
53625.0,STARLINK-4603,PAYLOAD,2023-04-16 05:04:47,15.08834531,0.0001608,53.2141,305.6143,60.1562,299.959,0.00040133,6.104e-05,0.0,0 STARLINK-4603,1 53625U 22104AP  23106.21166183  .00006104  00000-0  40133-3 0  9995,2 53625  53.2141 305.6143 0001608  60.1562 299.9590 15.08834531 35274,6917.897,95.438,540.875,538.65,0.0
53625.0,STARLINK-4603,PAYLOAD,2023-04-16 13:01:43,15.08842986,0.0001193,53.2141,304.1269,75.9751,284.1373,0.0010081,0.00015794,0.0,0 STARLINK-4603,1 53625U 22104AP  23106.54286114  .00015794  00000-0  10081-2 0  9991,2 53625  53.2141 304.1269 0001193  75.9751 284.1373 15.08842986 36000,6917.871,95.437,540.562,538.911,0.0
53625.0,STARLINK-4603,PAYLOAD,2023-04-16 19:23:15,15.08853913,0.0001099,53.2142,302.9375,76.4609,283.6506,0.0017861,0.00028263,0.0,0 STARLINK-4603,1 53625U 22104AP  23106.80781938  .00028263  00000-0  17861-2 0  9992,2 53625  53.2142 302.9375 0001099  76.4609 283.6506 15.08853913 35360,6917.838,95.437,540.463,538.943,0.0
53625.0,STARLINK-4603,PAYLOAD,2023-04-17 12:52:30,15.08839283,8.66e-05,53.2142,299.6656,70.9023,289.2062,0.00071627,0.0001113,0.0,0 STARLINK-4603,1 53625U 22104AP  23107.53646240  .00011130  00000-0  71627-3 0  9995,2 53625  53.2142 299.6656 0000866  70.9023 289.2062 15.08839283 35479,6917.883,95.438,540.347,539.148,0.0
53625.0,STARLINK-4603,PAYLOAD,2023-04-17 19:14:02,15.08853469,0.0001127,53.2142,298.4769,86.344,273.7681,0.0019321,0.00030607,0.0,0 STARLINK-4603,1 53625U 22104AP  23107.80142215  .00030607  00000-0  19321-2 0  9990,2 53625  53.2142 298.4769 0001127  86.3440 273.7681 15.08853469 36193,6917.839,95.437,540.484,538.925,0.0
53625.0,STARLINK-4603,PAYLOAD,2023-04-18 00:00:12,15.08862662,0.000112,53.2142,297.5843,83.9825,276.1294,0.0018012,0.00028512,0.0,0 STARLINK-4603,1 53625U 22104AP  23108.00014059  .00028512  00000-0  18012-2 0  9995,2 53625  53.2142 297.5843 0001120  83.9825 276.1294 15.08862662 35549,6917.811,95.436,540.451,538.901,0.0
53625.0,STARLINK-4603,PAYLOAD,2023-04-18 14:18:40,15.08851637,0.0001241,53.2143,294.9078,95.6271,264.4863,0.001552,0.00024506,0.0,0 STARLINK-4603,1 53625U 22104AP  23108.59630413  .00024506  00000-0  15520-2 0  9997,2 53625  53.2143 294.9078 0001241  95.6271 264.4863 15.08851637 35632,6917.845,95.437,540.568,538.851,0.0
53625.0,STARLINK-4603,PAYLOAD,2023-04-18 19:04:50,15.08856464,0.000112,53.2143,294.0159,70.0716,290.0397,0.0018133,0.00028702,0.0,0 STARLINK-4603,1 53625U 22104AP  23108.79502323  .00028702  00000-0  18133-2 0  9992,2 53625  53.2143 294.0159 0001120  70.0716 290.0397 15.08856464 36349,6917.83,95.437,540.47,538.92,0.0
53625.0,STARLINK-4603,PAYLOAD,2023-04-19 12:34:04,15.08849577,0.0001369,53.2147,290.7448,68.5296,291.5842,0.0015075,0.00023792,0.0,0 STARLINK-4603,1 53625U 22104AP  23109.52366452  .00023792  00000-0  15075-2 0  9991,2 53625  53.2147 290.7448 0001369  68.5296 291.5842 15.08849577 35771,6917.851,95.437,540.663,538.769,0.0
53625.0,STARLINK-4603,PAYLOAD,2023-04-19 18:55:36,15.0886564,0.0001205,53.2146,289.5553,82.4569,277.656,0.0018829,0.00029827,0.0,0 STARLINK-4603,1 53625U 22104AP  23109.78862003  .00029827  00000-0  18829-2 0  9997,2 53625  53.2146 289.5553 0001205  82.4569 277.6560 15.08865640 36491,6917.802,95.436,540.501,538.833,0.0
53625.0,STARLINK-4603,PAYLOAD,2023-04-20 12:24:51,15.08848392,0.000217,53.2152,286.2837,91.2982,268.8259,0.0012109,0.00019041,0.0,0 STARLINK-4603,1 53625U 22104AP  23110.51726373  .00019041  00000-0  12109-2 0  9991,2 53625  53.2152 286.2837 0002170  91.2982 268.8259 15.08848392 36601,6917.855,95.437,541.221,538.219,0.0
53625.0,STARLINK-4603,PAYLOAD,2023-04-20 18:46:24,15.08844905,0.0002001,53.215,285.0942,85.8637,274.2583,0.00086541,0.00013514,0.0,0 STARLINK-4603,1 53625U 22104AP  23110.78222374  .00013514  00000-0  86541-3 0  9993,2 53625  53.2150 285.0942 0002001  85.8637 274.2583 15.08844905 35967,6917.865,95.437,541.115,538.346,0.0
53625.0,STARLINK-4603,PAYLOAD,2023-04-21 10:40:14,15.08865803,0.0001212,53.2149,282.1208,98.3817,261.7312,0.0011387,0.00017894,0.0,0 STARLINK-4603,1 53625U 22104AP  23111.44461556  .00017894  00000-0  11387-2 0  9994,2 53625  53.2149 282.1208 0001212  98.3817 261.7312 15.08865803 36748,6917.802,95.436,540.505,538.828,0.0
53625.0,STARLINK-4603,PAYLOAD,2023-04-21 18:37:09,15.08887358,0.0001132,53.2145,280.6343,93.8401,266.272,0.0015917,0.00025168,0.0,0 STARLINK-4603,1 53625U 22104AP  23111.77580623  .00025168  00000-0  15917-2 0  9993,2 53625  53.2145 280.6343 0001132  93.8401 266.2720 15.08887358 36110,6917.736,95.435,540.384,538.818,0.0
